IRIDIUM 151             
1 43074U 17083E   26061.90045329  .00000061  00000+0  14674-4 0  9996
2 43074  86.4015   6.4705 0002160  87.1856 272.9587 14.34218003428909
IRIDIUM 134             
1 43075U 17083F   26061.93850868  .00000036  00000+0  58337-5 0  9999
2 43075  86.4020   6.4613 0002025  85.1282 275.0145 14.34217794428871
IRIDIUM 137             
1 43076U 17083G   26061.88142547  .00000049  00000+0  10333-4 0  9999
2 43076  86.4018   6.5754 0002287  97.1760 262.9695 14.34218011428935
IRIDIUM 141             
1 43077U 17083H   26061.87509590  .00000332  00000+0  11133-3 0  9997
2 43077  86.4014   6.4151 0002244  82.9831 277.1620 14.34219785428931
IRIDIUM 153             
1 43078U 17083J   26062.17610442  .00000067  00000+0  16956-4 0  9995
2 43078  86.4015 334.8031 0002162  77.7206 282.4232 14.34217927430088
IRIDIUM 131             
1 43079U 17083K   26061.93216595  .00000332  00000+0  11141-3 0  9995
2 43079  86.4020   6.5701 0002329  85.4480 274.6982 14.34216421428874
IRIDIUM 144             
1 43249U 18030A   26062.18244685 -.00000054  00000+0 -26242-4 0  9998
2 43249  86.4011 334.7320 0001918  85.9294 274.2121 14.34217385414941
IRIDIUM 149             
1 43250U 18030B   26062.11902074  .00000179  00000+0  56723-4 0  9999
2 43250  86.4016 334.7269 0002159  83.2948 276.8494 14.34218377414959
IRIDIUM 157             
1 43251U 18030C   26062.06827994  .00000110  00000+0  32046-4 0  9998
2 43251  86.4018 334.7991 0002144  85.1008 275.0432 14.34218156414921
IRIDIUM 140             
1 43252U 18030D   26062.15707654  .00000028  00000+0  30470-5 0  9997
2 43252  86.4015 334.7748 0002045  83.4756 276.6673 14.34217690414993
IRIDIUM 145             
1 43253U 18030E   26062.07462153  .00000214  00000+0  69326-4 0  9999
2 43253  86.4015 334.7815 0001853  93.0529 267.0879 14.34218378414918
IRIDIUM 146             
1 43254U 18030F   26062.12536284  .00000334  00000+0  11238-3 0  9994
2 43254  86.4016 334.7729 0002080  88.9672 271.1762 14.34218961414936
IRIDIUM 148             
1 43255U 18030G   26062.16341832  .00000270  00000+0  89171-4 0  9993
2 43255  86.4015 334.7984 0002137  86.3056 273.8384 14.34219054414977
IRIDIUM 142             
1 43256U 18030H   26062.13170528  .00000088  00000+0  24269-4 0  9997
2 43256  86.4014 334.7048 0001879  92.0137 268.1274 14.34218163414935
IRIDIUM 150             
1 43257U 18030J   26062.16975997  .00000340  00000+0  11427-3 0  9996
2 43257  86.4017 334.8015 0002053  85.6221 274.5209 14.34218088414969
IRIDIUM 143             
1 43258U 18030K   26062.08096484  .00000124  00000+0  37181-4 0  9999
2 43258  86.4020 334.9270 0001990  88.8387 271.3037 14.34218370414884
IRIDIUM 161             
1 43478U 18047C   26062.16214365  .00000372  00000+0  10457-3 0  9991
2 43478  86.4512 132.8101 0002540  92.9179 267.2313 14.43282522409840
