[{"OBJECT_NAME":"IRIDIUM 151","OBJECT_ID":"2017-083E","EPOCH":"2026-03-02T21:36:39.164256","MEAN_MOTION":14.34218003,"ECCENTRICITY":0.000216,"INCLINATION":86.4015,"RA_OF_ASC_NODE":6.4705,"ARG_OF_PERICENTER":87.1856,"MEAN_ANOMALY":272.9587,"EPHEMERIS_TYPE":0,"CLASSIFICATION_TYPE":"U","NORAD_CAT_ID":43074,"ELEMENT_SET_NO":999,"REV_AT_EPOCH":42890,"BSTAR":1.4674e-5,"MEAN_MOTION_DOT":6.1e-7,"MEAN_MOTION_DDOT":0},{"OBJECT_NAME":"IRIDIUM 134","OBJECT_ID":"2017-083F","EPOCH":"2026-03-02T22:31:27.149952","MEAN_MOTION":14.34217794,"ECCENTRICITY":0.0002025,"INCLINATION":86.402,"RA_OF_ASC_NODE":6.4613,"ARG_OF_PERICENTER":85.1282,"MEAN_ANOMALY":275.0145,"EPHEMERIS_TYPE":0,"CLASSIFICATION_TYPE":"U","NORAD_CAT_ID":43075,"ELEMENT_SET_NO":999,"REV_AT_EPOCH":42887,"BSTAR":5.8337e-6,"MEAN_MOTION_DOT":3.6e-7,"MEAN_MOTION_DDOT":0},{"OBJECT_NAME":"IRIDIUM 137","OBJECT_ID":"2017-083G","EPOCH":"2026-03-02T21:09:15.160608","MEAN_MOTION":14.34218011,"ECCENTRICITY":0.0002287,"INCLINATION":86.4018,"RA_OF_ASC_NODE":6.5754,"ARG_OF_PERICENTER":97.176,"MEAN_ANOMALY":262.9695,"EPHEMERIS_TYPE":0,"CLASSIFICATION_TYPE":"U","NORAD_CAT_ID":43076,"ELEMENT_SET_NO":999,"REV_AT_EPOCH":42893,"BSTAR":1.0333e-5,"MEAN_MOTION_DOT":4.9e-7,"MEAN_MOTION_DDOT":0},{"OBJECT_NAME":"IRIDIUM 141","OBJECT_ID":"2017-083H","EPOCH":"2026-03-02T21:00:08.285760","MEAN_MOTION":14.34219785,"ECCENTRICITY":0.0002244,"INCLINATION":86.4014,"RA_OF_ASC_NODE":6.4151,"ARG_OF_PERICENTER":82.9831,"MEAN_ANOMALY":277.162,"EPHEMERIS_TYPE":0,"CLASSIFICATION_TYPE":"U","NORAD_CAT_ID":43077,"ELEMENT_SET_NO":999,"REV_AT_EPOCH":42893,"BSTAR":0.00011133,"MEAN_MOTION_DOT":3.32e-6,"MEAN_MOTION_DDOT":0},{"OBJECT_NAME":"IRIDIUM 153","OBJECT_ID":"2017-083J","EPOCH":"2026-03-03T04:13:35.421888","MEAN_MOTION":14.34217927,"ECCENTRICITY":0.0002162,"INCLINATION":86.4015,"RA_OF_ASC_NODE":334.8031,"ARG_OF_PERICENTER":77.7206,"MEAN_ANOMALY":282.4232,"EPHEMERIS_TYPE":0,"CLASSIFICATION_TYPE":"U","NORAD_CAT_ID":43078,"ELEMENT_SET_NO":999,"REV_AT_EPOCH":43008,"BSTAR":1.6956e-5,"MEAN_MOTION_DOT":6.7e-7,"MEAN_MOTION_DDOT":0},{"OBJECT_NAME":"IRIDIUM 131","OBJECT_ID":"2017-083K","EPOCH":"2026-03-02T22:22:19.138080","MEAN_MOTION":14.34216421,"ECCENTRICITY":0.0002329,"INCLINATION":86.402,"RA_OF_ASC_NODE":6.5701,"ARG_OF_PERICENTER":85.448,"MEAN_ANOMALY":274.6982,"EPHEMERIS_TYPE":0,"CLASSIFICATION_TYPE":"U","NORAD_CAT_ID":43079,"ELEMENT_SET_NO":999,"REV_AT_EPOCH":42887,"BSTAR":0.00011141,"MEAN_MOTION_DOT":3.32e-6,"MEAN_MOTION_DDOT":0},{"OBJECT_NAME":"IRIDIUM 144","OBJECT_ID":"2018-030A","EPOCH":"2026-03-03T04:22:43.407840","MEAN_MOTION":14.34217385,"ECCENTRICITY":0.0001918,"INCLINATION":86.4011,"RA_OF_ASC_NODE":334.732,"ARG_OF_PERICENTER":85.9294,"MEAN_ANOMALY":274.2121,"EPHEMERIS_TYPE":0,"CLASSIFICATION_TYPE":"U","NORAD_CAT_ID":43249,"ELEMENT_SET_NO":999,"REV_AT_EPOCH":41494,"BSTAR":-2.6242e-5,"MEAN_MOTION_DOT":-5.4e-7,"MEAN_MOTION_DDOT":0},{"OBJECT_NAME":"IRIDIUM 149","OBJECT_ID":"2018-030B","EPOCH":"2026-03-03T02:51:23.391936","MEAN_MOTION":14.34218377,"ECCENTRICITY":0.0002159,"INCLINATION":86.4016,"RA_OF_ASC_NODE":334.7269,"ARG_OF_PERICENTER":83.2948,"MEAN_ANOMALY":276.8494,"EPHEMERIS_TYPE":0,"CLASSIFICATION_TYPE":"U","NORAD_CAT_ID":43250,"ELEMENT_SET_NO":999,"REV_AT_EPOCH":41495,"BSTAR":5.6723e-5,"MEAN_MOTION_DOT":1.79e-6,"MEAN_MOTION_DDOT":0},{"OBJECT_NAME":"IRIDIUM 157","OBJECT_ID":"2018-030C","EPOCH":"2026-03-03T01:38:19.386816","MEAN_MOTION":14.34218156,"ECCENTRICITY":0.0002144,"INCLINATION":86.4018,"RA_OF_ASC_NODE":334.7991,"ARG_OF_PERICENTER":85.1008,"MEAN_ANOMALY":275.0432,"EPHEMERIS_TYPE":0,"CLASSIFICATION_TYPE":"U","NORAD_CAT_ID":43251,"ELEMENT_SET_NO":999,"REV_AT_EPOCH":41492,"BSTAR":3.2046e-5,"MEAN_MOTION_DOT":1.1e-6,"MEAN_MOTION_DDOT":0},{"OBJECT_NAME":"IRIDIUM 140","OBJECT_ID":"2018-030D","EPOCH":"2026-03-03T03:46:11.413056","MEAN_MOTION":14.3421769,"ECCENTRICITY":0.0002045,"INCLINATION":86.4015,"RA_OF_ASC_NODE":334.7748,"ARG_OF_PERICENTER":83.4756,"MEAN_ANOMALY":276.6673,"EPHEMERIS_TYPE":0,"CLASSIFICATION_TYPE":"U","NORAD_CAT_ID":43252,"ELEMENT_SET_NO":999,"REV_AT_EPOCH":41499,"BSTAR":3.047e-6,"MEAN_MOTION_DOT":2.8e-7,"MEAN_MOTION_DDOT":0},{"OBJECT_NAME":"IRIDIUM 145","OBJECT_ID":"2018-030E","EPOCH":"2026-03-03T01:47:27.300192","MEAN_MOTION":14.34218378,"ECCENTRICITY":0.0001853,"INCLINATION":86.4015,"RA_OF_ASC_NODE":334.7815,"ARG_OF_PERICENTER":93.0529,"MEAN_ANOMALY":267.0879,"EPHEMERIS_TYPE":0,"CLASSIFICATION_TYPE":"U","NORAD_CAT_ID":43253,"ELEMENT_SET_NO":999,"REV_AT_EPOCH":41491,"BSTAR":6.9326e-5,"MEAN_MOTION_DOT":2.14e-6,"MEAN_MOTION_DDOT":0},{"OBJECT_NAME":"IRIDIUM 146","OBJECT_ID":"2018-030F","EPOCH":"2026-03-03T03:00:31.349376","MEAN_MOTION":14.34218961,"ECCENTRICITY":0.000208,"INCLINATION":86.4016,"RA_OF_ASC_NODE":334.7729,"ARG_OF_PERICENTER":88.9672,"MEAN_ANOMALY":271.1762,"EPHEMERIS_TYPE":0,"CLASSIFICATION_TYPE":"U","NORAD_CAT_ID":43254,"ELEMENT_SET_NO":999,"REV_AT_EPOCH":41493,"BSTAR":0.00011238,"MEAN_MOTION_DOT":3.34e-6,"MEAN_MOTION_DDOT":0},{"OBJECT_NAME":"IRIDIUM 148","OBJECT_ID":"2018-030G","EPOCH":"2026-03-03T03:55:19.342848","MEAN_MOTION":14.34219054,"ECCENTRICITY":0.0002137,"INCLINATION":86.4015,"RA_OF_ASC_NODE":334.7984,"ARG_OF_PERICENTER":86.3056,"MEAN_ANOMALY":273.8384,"EPHEMERIS_TYPE":0,"CLASSIFICATION_TYPE":"U","NORAD_CAT_ID":43255,"ELEMENT_SET_NO":999,"REV_AT_EPOCH":41497,"BSTAR":8.9171e-5,"MEAN_MOTION_DOT":2.7e-6,"MEAN_MOTION_DDOT":0},{"OBJECT_NAME":"IRIDIUM 142","OBJECT_ID":"2018-030H","EPOCH":"2026-03-03T03:09:39.336192","MEAN_MOTION":14.34218163,"ECCENTRICITY":0.0001879,"INCLINATION":86.4014,"RA_OF_ASC_NODE":334.7048,"ARG_OF_PERICENTER":92.0137,"MEAN_ANOMALY":268.1274,"EPHEMERIS_TYPE":0,"CLASSIFICATION_TYPE":"U","NORAD_CAT_ID":43256,"ELEMENT_SET_NO":999,"REV_AT_EPOCH":41493,"BSTAR":2.4269e-5,"MEAN_MOTION_DOT":8.8e-7,"MEAN_MOTION_DDOT":0},{"OBJECT_NAME":"IRIDIUM 150","OBJECT_ID":"2018-030J","EPOCH":"2026-03-03T04:04:27.261408","MEAN_MOTION":14.34218088,"ECCENTRICITY":0.0002053,"INCLINATION":86.4017,"RA_OF_ASC_NODE":334.8015,"ARG_OF_PERICENTER":85.6221,"MEAN_ANOMALY":274.5209,"EPHEMERIS_TYPE":0,"CLASSIFICATION_TYPE":"U","NORAD_CAT_ID":43257,"ELEMENT_SET_NO":999,"REV_AT_EPOCH":41496,"BSTAR":0.00011427,"MEAN_MOTION_DOT":3.4e-6,"MEAN_MOTION_DDOT":0},{"OBJECT_NAME":"IRIDIUM 143","OBJECT_ID":"2018-030K","EPOCH":"2026-03-03T01:56:35.362176","MEAN_MOTION":14.3421837,"ECCENTRICITY":0.000199,"INCLINATION":86.402,"RA_OF_ASC_NODE":334.927,"ARG_OF_PERICENTER":88.8387,"MEAN_ANOMALY":271.3037,"EPHEMERIS_TYPE":0,"CLASSIFICATION_TYPE":"U","NORAD_CAT_ID":43258,"ELEMENT_SET_NO":999,"REV_AT_EPOCH":41488,"BSTAR":3.7181e-5,"MEAN_MOTION_DOT":1.24e-6,"MEAN_MOTION_DDOT":0},{"OBJECT_NAME":"IRIDIUM 161","OBJECT_ID":"2018-047C","EPOCH":"2026-03-03T03:53:29.211360","MEAN_MOTION":14.43282522,"ECCENTRICITY":0.000254,"INCLINATION":86.4512,"RA_OF_ASC_NODE":132.8101,"ARG_OF_PERICENTER":92.9179,"MEAN_ANOMALY":267.2313,"EPHEMERIS_TYPE":0,"CLASSIFICATION_TYPE":"U","NORAD_CAT_ID":43478,"ELEMENT_SET_NO":999,"REV_AT_EPOCH":40984,"BSTAR":0.00010457,"MEAN_MOTION_DOT":3.72e-6,"MEAN_MOTION_DDOT":0}]
